#aV2009  7 21  0  0   .00000000      96 DD+AD WGS84 FIT  NGA
## 1541 172800.00000000   900.00000000 55033  .0000000000000
+   31     1  2  3  4  6  7  8  9 10 11 12 13 14 15 16 17 18
+         19 20 21 22 23 24 25 26 27 28 29 30 31 32  0  0  0
+          0  0  0  0  0  0  0  0  0  0  0  0  0  0  0  0  0
+          0  0  0  0  0  0  0  0  0  0  0  0  0  0  0  0  0
+          0  0  0  0  0  0  0  0  0  0  0  0  0  0  0  0  0
++         0  0  0  0  0  0  0  0  0  0  0  0  0  0  0  0  0
++         0  0  0  0  0  0  0  0  0  0  0  0  0  0  0  0  0
++         0  0  0  0  0  0  0  0  0  0  0  0  0  0  0  0  0
++         0  0  0  0  0  0  0  0  0  0  0  0  0  0  0  0  0
++         0  0  0  0  0  0  0  0  0  0  0  0  0  0  0  0  0
%c cc cc ccc ccc cccc cccc cccc cccc ccccc ccccc ccccc ccccc
%c cc cc ccc ccc cccc cccc cccc cccc ccccc ccccc ccccc ccccc
%f  0.0000000  0.000000000  0.00000000000  0.000000000000000
%f  0.0000000  0.000000000  0.00000000000  0.000000000000000
%i    0    0    0    0      0      0      0      0         0
%i    0    0    0    0      0      0      0      0         0
/*      NGA, ST. LOUIS,MO.                                  
/*   EPHEMERIS COMPUTED FROM  3 DAYS OF DATA                
/* CCCCCCCCCCCCCCCCCCCCCCCCCCCCCCCCCCCCCCCCCCCCCCCCCCCCCCCCC
/* CCCCCCCCCCCCCCCCCCCCCCCCCCCCCCCCCCCCCCCCCCCCCCCCCCCCCCCCC
*  2009  7 21 19 45   .00000000                                                 
P  1  16708.817546  19832.521897  -6088.902574    -63.989137                    
V  1  -7445.310697  -2961.537032 -30448.429899       .029893                    
P  2 -21935.703119  13009.691725   6505.271313    161.085856                    
V  2  -9227.570018   -547.642922 -30071.712291       .018248                    
P  3  10233.635102 -21272.703240  11494.318073    423.119352                    
V  3   2478.799162  15514.703022  26152.100413       .050666                    
P  4 -25847.395768   5645.642038  -4146.943909   -184.914733                    
V  4   3787.989056  -4565.253047 -30462.789498      -.165985                    
P  6  13566.707088 -17493.274511  14811.553336    198.791589                    
V  6    -13.086337  18770.843016  22545.072929       .104986                    
P  7 -14244.891785  -9771.025984  20188.850499     14.831237                    
V  7  23905.721799  -9288.414392  12226.582238      -.006953                    
P  8 -23949.157883  -1428.461206  11890.109784   -212.983694                    
V  8  14056.352175  -5240.820397  27075.250842      -.017929                    
P  9  -4260.994363  16722.253201 -20834.515865     67.757001                    
V  9 -23552.133966   8258.707676  11901.911200       .020755                    
P 10 -10662.858054  10852.018103  21611.322384    -19.638943                    
V 10 -20679.154618 -18638.217591   -510.012478      -.007031                    
P 11    109.846741 -18416.054341 -19249.464589    -11.594873                    
V 11  21854.244671 -11083.991859  11210.820159      -.016431                    
P 12   7324.825194  20429.584917 -15333.654797   -246.969769                    
V 12 -15867.449470 -11501.959104 -22689.547369       .060925                    
P 13  -7478.773706 -17957.567620  17948.353755    301.826961                    
V 13   6670.433316 -22020.028133 -19123.949947       .006746                    
P 14  14640.830346   1039.152747 -22005.783373    -76.649660                    
V 14  -6144.557774  27493.282667  -2894.898214       .055740                    
P 15  -7488.177531  25084.710704   4301.543696   -309.821975                    
V 15  -1972.358088  -5876.747355  31066.025216      -.023902                    
P 16  14966.238957  -6061.847134  21183.655121     30.618835                    
V 16  19430.815325  18324.608137  -8264.708996      -.036486                    
P 17 -15083.486354  -2070.719557 -21685.858657     71.910967                    
V 17   5490.305418 -27169.960740  -1409.064017       .025347                    
P 18  20263.293927  17440.924139  -1121.744564    -38.119354                    
V 18   -840.420540   3424.758032  31038.773716       .031095                    
P 19   8109.007599 -25073.923330   1874.615707     18.214635                    
V 19   2429.619595   3065.720724  31735.929533      -.014348                    
P 20  -8664.140412 -20674.705842 -14396.591354     76.746130                    
V 20  15575.653691   9562.402185 -23269.449100      -.009848                    
P 21  17487.622127   8707.837276  18531.036240      1.426521                    
V 21 -21255.679861   8516.437266  15665.515119      -.022044                    
P 22  22119.364803   8867.044163 -11650.394185    195.029134                    
V 22   9069.635371  12367.520621  26187.820980      -.007373                    
P 23   -285.007752 -25288.296921   7548.305698    389.967307                    
V 23   4445.599704  -9025.470156 -30180.172631      -.001660                    
P 24   3263.911467  15196.468112  21674.298136    206.180436                    
V 24 -26157.703193   7622.202983  -1162.184283       .029726                    
P 25  -6685.269387 -13623.546183  22135.459243    518.694299                    
V 25  24750.260487 -11439.747528    629.512921       .170563                    
P 26   7848.209864  17881.331241 -18324.534177     64.769416                    
V 26  -6542.155237  21310.589769  19043.372987       .000469                    
P 27 -11179.239595  16796.117076 -16590.352307     67.560807                    
V 27 -21324.576626   6936.331784  20557.715645       .031691                    
P 28 -22028.702162 -11548.021481  -9313.726508    -26.011582                    
V 28  -7579.575879  -9989.823640  28661.357584      -.001132                    
P 29   7309.548431  19810.612464  16240.559936     41.541454                    
V 29  -6155.844839  19552.374978 -21171.756281       .033829                    
P 30  16157.488444  19809.625337  -7730.869192    162.711217                    
V 30  -8992.231698  -3634.270758 -29471.864564       .028600                    
P 31  25465.293783  -7540.160494  -1870.104741    -64.067826                    
V 31  -1702.628821   3040.726337 -31816.457393      -.004901                    
P 32   -709.186257 -18955.060228 -18313.571713    228.274337                    
V 32  17734.653407  16163.175648 -16798.328747      -.061668                    
EOF
